H1 CPF 01  gfz 2022 12 09 01  8431 tandemx   
H2 1003001  6202 36605    2022 12 09 00 59 42 2022 12 14 00 00 42   120 1 1  0 0 0
H9
10 0 59923  49662.000000  0    2000433.311   2189253.157   6207047.282
10 0 59923  49782.000000  0    1668417.963   1392043.623   6526196.596
10 0 59923  49902.000000  0    1293178.583    576729.434   6730648.867
10 0 59923  50022.000000  0     881081.585   -241758.964   6816833.683
10 0 59923  50142.000000  0     439393.002  -1048558.916   6783246.744
10 0 59923  50262.000000  0     -23849.929  -1829145.933   6630475.173
10 0 59923  50382.000000  0    -499985.207  -2569595.079   6361187.509
10 0 59923  50502.000000  0    -979887.474  -3256830.212   5980088.755
10 0 59923  50622.000000  0   -1454140.153  -3878855.383   5493841.501
10 0 59923  50742.000000  0   -1913218.291  -4424967.016   4910957.274
10 0 59923  50862.000000  0   -2347680.505  -4885944.824   4241655.484
10 0 59923  50982.000000  0   -2748364.968  -5254216.380   3497689.006
10 0 59923  51102.000000  0   -3106583.362  -5523989.440   2692138.203
10 0 59923  51222.000000  0   -3414308.404  -5691348.716   1839179.680
10 0 59923  51342.000000  0   -3664351.639  -5754316.652    953833.416
10 0 59923  51462.000000  0   -3850526.981  -5712875.506     51692.124
10 0 59923  51582.000000  0   -3967795.598  -5568950.073   -851361.208
10 0 59923  51702.000000  0   -4012388.196  -5326350.936  -1739442.390
10 0 59923  51822.000000  0   -3981901.203  -4990678.835  -2596954.307
10 0 59923  51942.000000  0   -3875364.546  -4569193.460  -3408867.422
10 0 59923  52062.000000  0   -3693279.375  -4070651.025  -4160986.106
10 0 59923  52182.000000  0   -3437625.989  -3505115.982  -4840195.587
10 0 59923  52302.000000  0   -3111842.550  -2883751.553  -5434686.124
10 0 59923  52422.000000  0   -2720775.442  -2218593.974  -5934150.192
10 0 59923  52542.000000  0   -2270603.240  -1522316.495  -6329951.267
10 0 59923  52662.000000  0   -1768734.953   -807986.797  -6615262.441
10 0 59923  52782.000000  0   -1223685.634    -88823.251  -6785172.034
10 0 59923  52902.000000  0    -644933.058    622044.764  -6836757.737
10 0 59923  53022.000000  0     -42755.921   1311810.239  -6769131.682
10 0 59923  53142.000000  0     571943.654   1968212.986  -6583453.767
10 0 59923  53262.000000  0    1187832.120   2579752.601  -6282916.325
10 0 59923  53382.000000  0    1793349.677   3135887.526  -5872695.277
10 0 59923  53502.000000  0    2376922.927   3627216.486  -5359869.638
10 0 59923  53622.000000  0    2927183.383   4045638.805  -4753310.305
10 0 59923  53742.000000  0    3433188.092   4384493.157  -4063538.488
10 0 59923  53862.000000  0    3884638.717   4638670.776  -3302553.343
10 0 59923  53982.000000  0    4272094.616   4804699.753  -2483630.493
10 0 59923  54102.000000  0    4587173.410   4880797.314  -1621093.770
10 0 59923  54222.000000  0    4822735.512   4866890.404   -730065.677
10 0 59923  54342.000000  0    4973047.485   4764600.965    173802.194
10 0 59923  54462.000000  0    5033916.936   4577196.475   1074610.292
10 0 59923  54582.000000  0    5002798.728   4309508.657   1956497.594
10 0 59923  54702.000000  0    4878869.990   3967820.355   2803930.024
10 0 59923  54822.000000  0    4663068.370   3559721.982   3601983.553
10 0 59923  54942.000000  0    4358093.327   3093943.020   4336613.401
10 0 59923  55062.000000  0    3968372.675   2580163.252   4994904.018
10 0 59923  55182.000000  0    3499994.707   2028808.698   5565297.965
10 0 59923  55302.000000  0    2960605.183   1450836.564   6037796.061
10 0 59923  55422.000000  0    2359276.889    857514.383   6404127.196
10 0 59923  55542.000000  0    1706352.441    260198.893   6657885.800
10 0 59923  55662.000000  0    1013263.707   -329879.978   6794638.697
10 0 59923  55782.000000  0     292329.640   -901830.083   6811999.347
10 0 59923  55902.000000  0    -443463.486  -1445298.140   6709666.128
10 0 59923  56022.000000  0   -1180695.914  -1950656.907   6489426.615
10 0 59923  56142.000000  0   -1905758.042  -2409175.637   6155126.656
10 0 59923  56262.000000  0   -2605099.190  -2813170.640   5712607.898
10 0 59923  56382.000000  0   -3265481.901  -3156137.014   5169614.420
10 0 59923  56502.000000  0   -3874237.731  -3432857.274   4535662.771
10 0 59923  56622.000000  0   -4419514.669  -3639483.203   3821878.608
10 0 59923  56742.000000  0   -4890512.849  -3773590.468   3040804.554
10 0 59923  56862.000000  0   -5277704.419  -3834205.110   2206181.586
10 0 59923  56982.000000  0   -5573032.887  -3821801.256   1332704.967
10 0 59923  57102.000000  0   -5770084.676  -3738267.969    435759.627
10 0 59923  57222.000000  0   -5864229.399  -3586846.668   -468858.192
10 0 59923  57342.000000  0   -5852725.132  -3372041.109  -1365228.231
10 0 59923  57462.000000  0   -5734784.598  -3099500.964  -2237596.578
10 0 59923  57582.000000  0   -5511600.490  -2775882.668  -3070659.502
10 0 59923  57702.000000  0   -5186331.866  -2408692.611  -3849836.007
10 0 59923  57822.000000  0   -4764051.700  -2006115.939  -4561523.562
10 0 59923  57942.000000  0   -4251658.085  -1576836.150  -5193332.653
10 0 59923  58062.000000  0   -3657751.234  -1129849.225  -5734296.473
10 0 59923  58182.000000  0   -2992479.782   -674276.533  -6175051.615
10 0 59923  58302.000000  0   -2267360.975   -219181.158  -6507988.723
10 0 59923  58422.000000  0   -1495077.590    226608.673  -6727372.266
10 0 59923  58542.000000  0    -689256.367    654665.712  -6829427.930
10 0 59923  58662.000000  0     135767.834   1057118.580  -6812400.318
10 0 59923  58782.000000  0     965200.080   1426792.193  -6676579.521
10 0 59923  58902.000000  0    1784044.246   1757332.411  -6424299.445
10 0 59923  59022.000000  0    2577368.936   2043314.321  -6059902.014
10 0 59923  59142.000000  0    3330575.776   2280330.815  -5589669.880
10 0 59923  59262.000000  0    4029664.904   2465060.627  -5021728.077
10 0 59923  59382.000000  0    4661496.558   2595315.694  -4365916.072
10 0 59923  59502.000000  0    5214043.226   2670066.044  -3633627.544
10 0 59923  59622.000000  0    5676625.109   2689441.246  -2837620.782
10 0 59923  59742.000000  0    6040126.231   2654708.756  -1991803.491
10 0 59923  59862.000000  0    6297184.916   2568228.341  -1110990.680
10 0 59923  59982.000000  0    6442351.508   2433383.070   -210643.373
10 0 59923  60102.000000  0    6472210.784   2254488.508    693408.935
10 0 59923  60222.000000  0    6385462.227   2036681.252   1585253.517
10 0 59923  60342.000000  0    6182961.447   1785792.406   2449182.132
10 0 59923  60462.000000  0    5867716.582   1508205.798   3269977.661
10 0 59923  60582.000000  0    5444840.817   1210706.177   4033189.584
10 0 59923  60702.000000  0    4921461.708    900321.149   4725393.519
10 0 59923  60822.000000  0    4306592.556    584161.773   5334428.145
10 0 59923  60942.000000  0    3610967.865    269264.197   5849608.812
10 0 59923  61062.000000  0    2846845.450    -37563.176   6261910.792
10 0 59923  61182.000000  0    2027783.770   -329882.451   6564120.478
10 0 59923  61302.000000  0    1168397.492   -601758.049   6750956.444
10 0 59923  61422.000000  0     284093.306   -847875.464   6819157.372
10 0 59923  61542.000000  0    -609207.636  -1063643.811   6767534.264
10 0 59923  61662.000000  0   -1495355.681  -1245281.295   6596989.075
10 0 59923  61782.000000  0   -2358263.287  -1389881.472   6310498.888
10 0 59923  61902.000000  0   -3182195.006  -1495458.979   5913067.448
10 0 59923  62022.000000  0   -3952056.224  -1560975.664   5411645.711
10 0 59923  62142.000000  0   -4653675.036  -1586347.112   4815016.356
10 0 59923  62262.000000  0   -5274070.031  -1572427.794   4133644.883
10 0 59923  62382.000000  0   -5801698.288  -1520974.857   3379498.881
10 0 59923  62502.000000  0   -6226678.125  -1434591.460   2565839.871
10 0 59923  62622.000000  0   -6540984.324  -1316651.895   1706990.874
10 0 59923  62742.000000  0   -6738610.017  -1171209.321    818079.281
10 0 59923  62862.000000  0   -6815686.937  -1002887.668    -85237.363
10 0 59923  62982.000000  0   -6770563.189   -816760.954   -987055.842
10 0 59923  63102.000000  0   -6603836.068   -618223.303  -1871516.470
10 0 59923  63222.000000  0   -6318339.317   -412852.987  -2723089.078
10 0 59923  63342.000000  0   -5919087.640   -206275.029  -3526851.657
10 0 59923  63462.000000  0   -5413176.665     -4023.722  -4268755.742
10 0 59923  63582.000000  0   -4809643.030    188590.377  -4935870.349
10 0 59923  63702.000000  0   -4119290.437    366605.840  -5516602.105
10 0 59923  63822.000000  0   -3354484.932    525524.829  -6000888.574
10 0 59923  63942.000000  0   -2528924.766    661414.169  -6380360.869
10 0 59923  64062.000000  0   -1657391.957    770992.055  -6648476.077
10 0 59923  64182.000000  0    -755487.412    851698.945  -6800619.750
10 0 59923  64302.000000  0     160644.479    901751.653  -6834175.249
10 0 59923  64422.000000  0    1074596.643    920179.298  -6748563.794
10 0 59923  64542.000000  0    1969986.358    906841.216  -6545256.130
10 0 59923  64662.000000  0    2830743.258    862426.874  -6227749.955
10 0 59923  64782.000000  0    3641393.173    788437.504  -5801515.597
10 0 59923  64902.000000  0    4387333.161    687149.029  -5273910.781
10 0 59923  65022.000000  0    5055095.658    561557.347  -4654065.530
10 0 59923  65142.000000  0    5632597.596    415307.121  -3952735.396
10 0 59923  65262.000000  0    6109367.502    252604.250  -3182124.136
10 0 59923  65382.000000  0    6476746.333     78114.365  -2355679.180
10 0 59923  65502.000000  0    6728058.570   -103151.107  -1487860.920
10 0 59923  65622.000000  0    6858745.881   -285958.550   -593888.522
10 0 59923  65742.000000  0    6866459.991   -464982.003    310530.579
10 0 59923  65862.000000  0    6751113.206   -634937.061   1209483.119
10 0 59923  65982.000000  0    6514883.154   -790714.870   2087138.424
10 0 59923  66102.000000  0    6162172.095   -927512.591   2928037.123
99
